NORAD_CAT_ID,OBJECT_NAME,OBJECT_TYPE,EPOCH,MEAN_MOTION,ECCENTRICITY,INCLINATION,RA_OF_ASC_NODE,ARG_OF_PERICENTER,MEAN_ANOMALY,BSTAR,MEAN_MOTION_DOT,MEAN_MOTION_DDOT,TLE_LINE0,TLE_LINE1,TLE_LINE2,SEMIMAJOR_AXIS,PERIOD,APOGEE,PERIGEE,DECAYED
52098.0,STARLINK-3665,PAYLOAD,2024-07-25 08:25:16,15.08837936,0.000138,53.2156,228.2353,95.204,264.911,5.006e-05,5.09e-06,0.0,0 STARLINK-3665,1 52098U 22029L   24207.35088955  .00000509  00000-0  50060-4 0  9996,2 52098  53.2156 228.2353 0001380  95.2040 264.9110 15.08837936131238,6917.887,95.438,540.706,538.797,0.0
52098.0,STARLINK-3665,PAYLOAD,2024-07-26 05:05:17,15.08834302,0.0001332,53.2157,224.3688,97.1281,262.9863,7.4956e-05,9.05e-06,0.0,0 STARLINK-3665,1 52098U 22029L   24208.21201153  .00000905  00000-0  74956-4 0  9999,2 52098  53.2157 224.3688 0001332  97.1281 262.9863 15.08834302131363,6917.898,95.438,540.684,538.841,0.0
52098.0,STARLINK-3665,PAYLOAD,2024-07-26 06:40:40,15.08834836,0.0001332,53.2155,224.0714,96.2301,263.8843,7.8989e-05,9.69e-06,0.0,0 STARLINK-3665,1 52098U 22029L   24208.27825136  .00000969  00000-0  78989-4 0  9998,2 52098  53.2155 224.0714 0001332  96.2301 263.8843 15.08834836131372,6917.896,95.438,540.683,538.84,0.0
52098.0,STARLINK-3665,PAYLOAD,2024-07-26 17:48:22,15.08839531,0.0001437,53.2165,221.9915,93.5023,266.6133,8.8637e-05,1.123e-05,0.0,0 STARLINK-3665,1 52098U 22029L   24208.74192915  .00001123  00000-0  88637-4 0  9996,2 52098  53.2165 221.9915 0001437  93.5023 266.6133 15.08839531131447,6917.882,95.438,540.741,538.753,0.0
52098.0,STARLINK-3665,PAYLOAD,2024-07-27 06:31:28,15.08838329,0.0001467,53.2166,219.6128,94.8836,265.2324,3.1896e-05,2.2e-06,0.0,0 STARLINK-3665,1 52098U 22029L   24209.27185226  .00000220  00000-0  31896-4 0  9994,2 52098  53.2166 219.6128 0001467  94.8836 265.2324 15.08838329131527,6917.885,95.438,540.765,538.736,0.0
52098.0,STARLINK-3665,PAYLOAD,2024-07-27 09:42:14,15.08838844,0.0001487,53.2165,219.0198,99.5691,260.5469,4.1226e-05,3.68e-06,0.0,0 STARLINK-3665,1 52098U 22029L   24209.40433166  .00000368  00000-0  41226-4 0  9999,2 52098  53.2165 219.0198 0001487  99.5691 260.5469 15.08838844131542,6917.884,95.438,540.778,538.72,0.0
52098.0,STARLINK-3665,PAYLOAD,2024-07-27 11:17:37,15.08840636,0.0001456,53.2163,218.7202,93.2359,266.88,4.655e-05,4.53e-06,0.0,0 STARLINK-3665,1 52098U 22029L   24209.47057024  .00000453  00000-0  46550-4 0  9991,2 52098  53.2163 218.7202 0001456  93.2359 266.8800 15.08840636131551,6917.878,95.438,540.751,538.736,0.0
52098.0,STARLINK-3665,PAYLOAD,2024-07-28 09:33:01,15.0883915,0.000142,53.2159,214.5557,89.4689,270.6465,4.4809e-05,4.25e-06,0.0,0 STARLINK-3665,1 52098U 22029L   24210.39793144  .00000425  00000-0  44809-4 0  9998,2 52098  53.2159 214.5557 0001420  89.4689 270.6465 15.08839150131691,6917.883,95.438,540.73,538.766,0.0
52098.0,STARLINK-3665,PAYLOAD,2024-07-29 04:37:38,15.08839281,0.0001459,53.216,210.987,84.9272,275.1887,5.3564e-05,5.65e-06,0.0,0 STARLINK-3665,1 52098U 22029L   24211.19281170  .00000565  00000-0  53564-4 0  9991,2 52098  53.2160 210.9870 0001459  84.9272 275.1887 15.08839281131818,6917.883,95.438,540.757,538.738,0.0
52098.0,STARLINK-3665,PAYLOAD,2024-07-29 09:23:48,15.0884151,0.0001404,53.2157,210.0948,87.1782,272.9371,4.4077e-05,4.14e-06,0.0,0 STARLINK-3665,1 52098U 22029L   24211.39153028  .00000414  00000-0  44077-4 0  9995,2 52098  53.2157 210.0948 0001404  87.1782 272.9371 15.08841510131846,6917.876,95.437,540.712,538.77,0.0
52098.0,STARLINK-3665,PAYLOAD,2024-07-30 06:03:48,15.08840946,0.0001349,53.2155,206.2287,90.5741,269.5406,5.4917e-05,5.86e-06,0.0,0 STARLINK-3665,1 52098U 22029L   24212.25264962  .00000586  00000-0  54917-4 0  9995,2 52098  53.2155 206.2287 0001349  90.5741 269.5406 15.08840946131975,6917.877,95.437,540.676,538.809,0.0
52098.0,STARLINK-3665,PAYLOAD,2024-07-30 17:11:30,15.0884404,0.0001366,53.2157,204.1472,89.9973,270.1176,8.148e-05,1.009e-05,0.0,0 STARLINK-3665,1 52098U 22029L   24212.71632640  .00001009  00000-0  81480-4 0  9994,2 52098  53.2157 204.1472 0001366  89.9973 270.1176 15.08844040132048,6917.868,95.437,540.678,538.788,0.0
52098.0,STARLINK-3665,PAYLOAD,2024-07-31 04:19:13,15.08835927,0.0001651,53.2175,202.0658,99.107,261.0109,2.0505e-05,3.8e-07,0.0,0 STARLINK-3665,1 52098U 22029L   24213.18001452  .00000038  00000-0  20505-4 0  9999,2 52098  53.2175 202.0658 0001651  99.1070 261.0109 15.08835927132116,6917.893,95.438,540.9,538.616,0.0
52098.0,STARLINK-3665,PAYLOAD,2024-07-31 07:29:59,15.08834534,0.0001588,53.2172,201.4709,98.2521,261.8652,3.5444e-06,-2.32e-06,0.0,0 STARLINK-3665,1 52098U 22029L   24213.31249593 -.00000232  00000-0  35444-5 0  9990,2 52098  53.2172 201.4709 0001588  98.2521 261.8652 15.08834534132139,6917.897,95.438,540.861,538.664,0.0
52098.0,STARLINK-3665,PAYLOAD,2024-08-01 08:56:09,15.08843306,0.000161,53.2174,196.7125,100.3224,259.795,5.8323e-05,6.4e-06,0.0,0 STARLINK-3665,1 52098U 22029L   24214.37232895  .00000640  00000-0  58323-4 0  9996,2 52098  53.2174 196.7125 0001610 100.3224 259.7950 15.08843306132291,6917.87,95.437,540.849,538.622,0.0
52098.0,STARLINK-3665,PAYLOAD,2024-08-01 23:14:37,15.08837989,0.0001498,53.2166,194.0357,99.49,260.6262,9.3881e-05,1.206e-05,0.0,0 STARLINK-3665,1 52098U 22029L   24214.96849038  .00001206  00000-0  93881-4 0  9991,2 52098  53.2166 194.0357 0001498  99.4900 260.6262 15.08837989132380,6917.887,95.438,540.788,538.715,0.0
52098.0,STARLINK-3665,PAYLOAD,2024-08-02 05:36:10,15.08833652,0.0001366,53.2162,192.8477,93.8116,266.3032,5.4119e-05,5.73e-06,0.0,0 STARLINK-3665,1 52098U 22029L   24215.23345562  .00000573  00000-0  54119-4 0  9992,2 52098  53.2162 192.8477 0001366  93.8116 266.3032 15.08833652132422,6917.9,95.438,540.71,538.82,0.0
52098.0,STARLINK-3665,PAYLOAD,2024-08-02 21:30:01,15.08842995,0.0001572,53.2175,189.8779,118.7053,241.4097,-3.645e-06,-3.46e-06,0.0,0 STARLINK-3665,1 52098U 22029L   24215.89585266 -.00000346  00000-0 -36450-5 0  9990,2 52098  53.2175 189.8779 0001572 118.7053 241.4097 15.08842995132529,6917.871,95.437,540.824,538.649,0.0
52098.0,STARLINK-3665,PAYLOAD,2024-08-03 07:02:20,15.08838591,0.0001478,53.218,188.0926,105.1932,254.9223,3.2076e-06,-2.37e-06,0.0,0 STARLINK-3665,1 52098U 22029L   24216.29329599 -.00000237  00000-0  32076-5 0  9998,2 52098  53.2180 188.0926 0001478 105.1932 254.9223 15.08838591132584,6917.885,95.438,540.772,538.727,0.0
52098.0,STARLINK-3665,PAYLOAD,2024-08-03 14:59:15,15.08846287,0.0001466,53.2183,186.6057,95.8001,264.3158,7.1838e-05,8.56e-06,0.0,0 STARLINK-3665,1 52098U 22029L   24216.62448924  .00000856  00000-0  71838-4 0  9993,2 52098  53.2183 186.6057 0001466  95.8001 264.3158 15.08846287132634,6917.861,95.437,540.74,538.712,0.0
52098.0,STARLINK-3665,PAYLOAD,2024-08-04 03:42:22,15.08828219,0.0001413,53.2177,184.2274,95.6156,264.4997,1.9216e-05,1.8e-07,0.0,0 STARLINK-3665,1 52098U 22029L   24217.15442393  .00000018  00000-0  19216-4 0  9998,2 52098  53.2177 184.2274 0001413  95.6156 264.4997 15.08828219132719,6917.916,95.438,540.759,538.804,0.0
52098.0,STARLINK-3665,PAYLOAD,2024-08-04 14:50:02,15.08848321,0.000131,53.2171,182.1455,89.8389,270.2753,0.0001246,1.696e-05,0.0,0 STARLINK-3665,1 52098U 22029L   24217.61808921  .00001696  00000-0  12460-3 0  9998,2 52098  53.2171 182.1455 0001310  89.8389 270.2753 15.08848321132788,6917.855,95.437,540.626,538.814,0.0
52098.0,STARLINK-3665,PAYLOAD,2024-08-05 05:08:31,15.08842596,0.0001417,53.2166,179.4659,82.0726,278.0427,6.884e-05,8.08e-06,0.0,0 STARLINK-3665,1 52098U 22029L   24218.21425647  .00000808  00000-0  68840-4 0  9993,2 52098  53.2166 179.4659 0001417  82.0726 278.0427 15.08842596132877,6917.872,95.437,540.718,538.757,0.0
52098.0,STARLINK-3665,PAYLOAD,2024-08-05 14:40:49,15.08866523,0.0001606,53.2176,177.6758,68.4562,291.6601,-6.5576e-06,-3.93e-06,0.0,0 STARLINK-3665,1 52098U 22029L   24218.61167919 -.00000393  00000-0 -65576-5 0  9997,2 52098  53.2176 177.6758 0001606  68.4562 291.6601 15.08866523132932,6917.799,95.436,540.775,538.553,0.0
52098.0,STARLINK-3665,PAYLOAD,2024-08-06 04:59:20,15.08821692,0.0001252,53.2157,175.0021,87.6652,272.4483,-8.5124e-05,-1.642e-05,0.0,0 STARLINK-3665,1 52098U 22029L   24219.20787456 -.00001642  00000-0 -85124-4 0  9995,2 52098  53.2157 175.0021 0001252  87.6652 272.4483 15.08821692133020,6917.936,95.439,540.667,538.935,0.0
52098.0,STARLINK-3665,PAYLOAD,2024-08-06 14:31:38,15.08838118,0.0001319,53.2159,173.224,75.9589,284.155,-7.0415e-06,-4e-06,0.0,0 STARLINK-3665,1 52098U 22029L   24219.60530504 -.00000400  00000-0 -70415-5 0  9998,2 52098  53.2159 173.2240 0001319  75.9589 284.1550 15.08838118133080,6917.886,95.438,540.664,538.839,0.0
52098.0,STARLINK-3665,PAYLOAD,2024-08-07 01:39:19,15.08845055,0.0001491,53.2161,171.141,78.7793,281.3366,0.00014827,2.073e-05,0.0,0 STARLINK-3665,1 52098U 22029L   24220.06897807  .00002073  00000-0  14827-3 0  9991,2 52098  53.2161 171.1410 0001491  78.7793 281.3366 15.08845055133158,6917.865,95.437,540.761,538.698,0.0
52098.0,STARLINK-3665,PAYLOAD,2024-08-08 06:16:16,15.08849916,0.0001277,53.2158,165.7886,101.8752,258.2383,0.00031647,4.754e-05,0.0,0 STARLINK-3665,1 52098U 22029L   24221.26129733  .00004754  00000-0  31647-3 0  9997,2 52098  53.2158 165.7886 0001277 101.8752 258.2383 15.08849916133337,6917.85,95.437,540.598,538.832,0.0
52098.0,STARLINK-3665,PAYLOAD,2024-08-09 02:56:17,15.08842168,0.0001045,53.2165,161.9181,85.8082,274.3029,1.1004e-05,-1.13e-06,0.0,0 STARLINK-3665,1 52098U 22029L   24222.12242213 -.00000113  00000-0  11004-4 0  9994,2 52098  53.2165 161.9181 0001045  85.8082 274.3029 15.08842168133463,6917.874,95.437,540.462,539.016,0.0
52098.0,STARLINK-3665,PAYLOAD,2024-08-09 12:28:34,15.08859167,0.0001245,53.2165,160.1408,86.97,273.1434,2.8042e-05,1.59e-06,0.0,0 STARLINK-3665,1 52098U 22029L   24222.51984840  .00000159  00000-0  28042-4 0  9995,2 52098  53.2165 160.1408 0001245  86.9700 273.1434 15.08859167133528,6917.822,95.436,540.548,538.826,0.0
